NORAD_CAT_ID,OBJECT_NAME,OBJECT_TYPE,EPOCH,MEAN_MOTION,ECCENTRICITY,INCLINATION,RA_OF_ASC_NODE,ARG_OF_PERICENTER,MEAN_ANOMALY,BSTAR,MEAN_MOTION_DOT,MEAN_MOTION_DDOT,TLE_LINE0,TLE_LINE1,TLE_LINE2,SEMIMAJOR_AXIS,PERIOD,APOGEE,PERIGEE,DECAYED
52305.0,STARLINK-3724,PAYLOAD,2022-08-25 14:00:01,15.08800691,0.0001536,53.2186,139.6045,74.2549,325.3789,0.0028281,0.0004496,0.0,0 STARLINK-3724,1 52305U 22041AW  22237.58334491  .00044960  00000-0  28281-2 0  9993,2 52305  53.2186 139.6045 0001536  74.2549 325.3789 15.08800691  1305,6918.001,95.44,540.928,538.803,0.0
52305.0,STARLINK-3724,PAYLOAD,2022-08-25 22:00:00,15.08842859,0.0001645,53.2186,138.1095,71.3161,339.8825,-0.001843,-0.00029502,0.0,0 STARLINK-3724,1 52305U 22041AW  22237.91667824 -.00029502  00000-0 -18430-2 0  9991,2 52305  53.2186 138.1095 0001645  71.3161 339.8825 15.08842859 20723,6917.871999999999,95.437,540.875,538.599,0.0
52305.0,STARLINK-3724,PAYLOAD,2022-08-26 14:00:01,15.08811857,0.0001593,53.2183,135.1158,74.8724,359.5672,0.0028943,0.0004604,0.0,0 STARLINK-3724,1 52305U 22041AW  22238.58335648  .00046040  00000-0  28943-2 0  9995,2 52305  53.2183 135.1158 0001593  74.8724 359.5672 15.08811857 20826,6917.965999999999,95.439,540.933,538.729,0.0
52305.0,STARLINK-3724,PAYLOAD,2022-08-26 22:00:00,15.0885313,0.0001720999999999,53.2183,133.6209,71.4789,14.4776,-0.0016567999999999,-0.00026569,0.0,0 STARLINK-3724,1 52305U 22041AW  22238.91667824 -.00026569  00000-0 -16568-2 0  9992,2 52305  53.2183 133.6209 0001721  71.4789  14.4776 15.08853130  1307,6917.84,95.437,540.896,538.515,0.0
52305.0,STARLINK-3724,PAYLOAD,2022-08-27 14:00:01,15.08827611,0.0001657,53.2183,130.6269,74.6516,34.5125,0.0028671,0.00045622,0.0,0 STARLINK-3724,1 52305U 22041AW  22239.58334491  .00045622  00000-0  28671-2 0  9994,2 52305  53.2183 130.6269 0001657  74.6516  34.5125 15.08827611  1307,6917.918000000002,95.438,540.93,538.637,0.0
52305.0,STARLINK-3724,PAYLOAD,2022-08-27 22:00:00,15.08877691,0.0001754,53.2183,129.132,70.4986,50.2639,-0.0041817,-0.00066297,0.0,0 STARLINK-3724,1 52305U 22041AW  22239.91667824 -.00066297  00000-0 -41817-2 0  9990,2 52305  53.2183 129.1320 0001754  70.4986  50.2639 15.08877691 21020,6917.765,95.435,540.844,538.4169999999998,0.0
52305.0,STARLINK-3724,PAYLOAD,2022-08-28 14:00:01,15.08824728,0.0001615,53.2184,126.1378,73.6529,70.329,0.0028769,0.00045776,0.0,0 STARLINK-3724,1 52305U 22041AW  22240.58334491  .00045776  00000-0  28769-2 0  9994,2 52305  53.2184 126.1378 0001615  73.6529  70.3290 15.08824728 21125,6917.927,95.439,540.909,538.675,0.0
52305.0,STARLINK-3724,PAYLOAD,2022-08-28 22:00:00,15.08868322,0.000172,53.2185,124.6429,68.9969,86.5767,-0.0031595,-0.0005026,0.0,0 STARLINK-3724,1 52305U 22041AW  22240.91667824 -.00050260  00000-0 -31595-2 0  9997,2 52305  53.2185 124.6429 0001720  68.9969  86.5767 15.08868322  1302,6917.794,95.436,540.849,538.469,0.0
52305.0,STARLINK-3724,PAYLOAD,2022-08-29 06:00:02,15.08840348,0.0001646,53.2183,123.1465,65.0604,102.18,-0.0010018,-0.00016196,0.0,0 STARLINK-3724,1 52305U 22041AW  22241.25002315 -.00016196  00000-0 -10018-2 0  9990,2 52305  53.2183 123.1465 0001646  65.0604 102.1800 15.08840348 21229,6917.879,95.438,540.883,538.606,0.0
52305.0,STARLINK-3724,PAYLOAD,2022-08-29 14:00:01,15.08815603,0.0001571,53.2186,121.6487,73.6499,105.1211,0.002584,0.00041049,0.0,0 STARLINK-3724,1 52305U 22041AW  22241.58334491  .00041049  00000-0  25840-2 0  9991,2 52305  53.2186 121.6487 0001571  73.6499 105.1211 15.08815603  1305,6917.955,95.439,540.9069999999998,538.7330000000002,0.0
52305.0,STARLINK-3724,PAYLOAD,2022-08-29 22:00:00,15.08845572,0.000167,53.2185,120.1538,68.3189,122.0366,-0.00072701,-0.00011842,0.0,0 STARLINK-3724,1 52305U 22041AW  22241.91667824 -.00011842  00000-0 -72701-3 0  9996,2 52305  53.2185 120.1538 0001670  68.3189 122.0366 15.08845572 21323,6917.863,95.437,540.884,538.573,0.0
52305.0,STARLINK-3724,PAYLOAD,2022-08-30 14:00:01,15.08813291,0.0001473,53.2185,117.1595,74.2191,139.3347,0.0020088,0.00031803,0.0,0 STARLINK-3724,1 52305U 22041AW  22242.58334491  .00031803  00000-0  20088-2 0  9998,2 52305  53.2185 117.1595 0001473  74.2191 139.3347 15.08813291  1301,6917.962,95.439,540.846,538.808,0.0
52305.0,STARLINK-3724,PAYLOAD,2022-08-30 22:00:00,15.08833851,0.0001569,53.2185,115.6648,67.91199999999999,157.2204,-0.00053796,-8.838e-05,0.0,0 STARLINK-3724,1 52305U 22041AW  22242.91667824 -.00008838  00000-0 -53796-3 0  9991,2 52305  53.2185 115.6648 0001569  67.9120 157.2204 15.08833851  1305,6917.899,95.438,540.85,538.679,0.0
52305.0,STARLINK-3724,PAYLOAD,2022-08-31 14:00:01,15.08825393,0.0001473,53.2183,112.6704,76.4641,171.8429,0.0023388,0.00037115,0.0,0 STARLINK-3724,1 52305U 22041AW  22243.58334491  .00037115  00000-0  23388-2 0  9997,2 52305  53.2183 112.6704 0001473  76.4641 171.8429 15.08825393  1303,6917.925,95.438,540.809,538.771,0.0
52305.0,STARLINK-3724,PAYLOAD,2022-08-31 20:00:01,15.08858372,0.0001512,53.2183,111.5494,71.7272,95.271,-0.0018494,-0.00029615,0.0,0 STARLINK-3724,1 52305U 22041AW  22243.83334491 -.00029615  00000-0 -18494-2 0  9995,2 52305  53.2183 111.5494 0001512  71.7272  95.2710 15.08858372 21610,6917.824000000001,95.436,540.735,538.643,0.0
52305.0,STARLINK-3724,PAYLOAD,2022-08-31 22:00:00,15.08853647,0.0001536,53.2182,111.1758,69.4089,190.4925,-0.0017669,-0.00028309,0.0,0 STARLINK-3724,1 52305U 22041AW  22243.91667824 -.00028309  00000-0 -17669-2 0  9995,2 52305  53.2182 111.1758 0001536  69.4089 190.4925 15.08853647  1304,6917.839,95.437,540.766,538.641,0.0
52305.0,STARLINK-3724,PAYLOAD,2022-09-01 14:00:01,15.08812388,0.0001375999999999,53.2181,108.1813,77.8586,205.2864,0.00215,0.00034069,0.0,0 STARLINK-3724,1 52305U 22041AW  22244.58335648  .00034069  00000-0  21500-2 0  9992,2 52305  53.2181 108.1813 0001376  77.8586 205.2864 15.08812388  1302,6917.965,95.439,540.7819999999998,538.878,0.0
52305.0,STARLINK-3724,PAYLOAD,2022-09-01 22:00:00,15.088278400000002,0.0001473,53.218,106.6869,69.3911,225.2697,-0.00013849,-2.491e-05,0.0,0 STARLINK-3724,1 52305U 22041AW  22244.91667824 -.00002491  00000-0 -13849-3 0  9997,2 52305  53.2180 106.6869 0001473  69.3911 225.2697 15.08827840 21779,6917.918000000002,95.438,540.802,538.764,0.0
52305.0,STARLINK-3724,PAYLOAD,2022-09-02 14:00:01,15.08826197,0.0001406999999999,53.2179,103.6925,78.7718,239.0556,0.0019902,0.00031516,0.0,0 STARLINK-3724,1 52305U 22041AW  22245.58334491  .00031516  00000-0  19902-2 0  9995,2 52305  53.2179 103.6925 0001407  78.7718 239.0556 15.08826197  1301,6917.9230000000025,95.438,540.761,538.814,0.0
52305.0,STARLINK-3724,PAYLOAD,2022-09-02 22:00:01,15.08835644,0.0001515,53.2179,102.198,69.9753,259.5066,2.5005e-05,1.1e-06,0.0,0 STARLINK-3724,1 52305U 22041AW  22245.91668981  .00000110  00000-0  25005-4 0  9995,2 52305  53.2179 102.1980 0001515  69.9753 259.5066 15.08835644 21927,6917.894,95.438,540.807,538.711,0.0
52305.0,STARLINK-3724,PAYLOAD,2022-09-03 14:00:01,15.08841252,0.0001443,53.2181,99.2036,78.0044,274.6098,0.0018094,0.00028627,0.0,0 STARLINK-3724,1 52305U 22041AW  22246.58334491  .00028627  00000-0  18094-2 0  9996,2 52305  53.2181  99.2036 0001443  78.0044 274.6098 15.08841252  1307,6917.877,95.437,540.74,538.743,0.0
52305.0,STARLINK-3724,PAYLOAD,2022-09-03 22:00:00,15.0886041,0.0001504,53.2182,97.7091,68.2496,295.9785,-0.0023896,-0.00038139,0.0,0 STARLINK-3724,1 52305U 22041AW  22246.91667824 -.00038139  00000-0 -23896-2 0  9999,2 52305  53.2182  97.7091 0001504  68.2496 295.9785 15.08860410 22075,6917.818,95.436,540.7230000000002,538.643,0.0
52305.0,STARLINK-3724,PAYLOAD,2022-09-04 14:00:01,15.08815901,0.0001503,53.2186,94.7147,76.5316,310.9544,0.0018312,0.00028956,0.0,0 STARLINK-3724,1 52305U 22041AW  22247.58335648  .00028956  00000-0  18312-2 0  9990,2 52305  53.2186  94.7147 0001503  76.5316 310.9544 15.08815901 22177,6917.954000000002,95.439,540.859,538.779,0.0
52305.0,STARLINK-3724,PAYLOAD,2022-09-04 20:00:01,15.0883174,0.0001583,53.2185,93.594,69.3318,236.7741,-0.00040987,-6.804e-05,0.0,0 STARLINK-3724,1 52305U 22041AW  22247.83334491 -.00006804  00000-0 -40987-3 0  9997,2 52305  53.2185  93.5940 0001583  69.3318 236.7741 15.08831740  1309,6917.906,95.438,540.866,538.6759999999998,0.0
52305.0,STARLINK-3724,PAYLOAD,2022-09-05 14:00:01,15.08864131,0.0001489,53.2192,90.226,75.0011,347.1854,-0.0017524,-0.00028087,0.0,0 STARLINK-3724,1 52305U 22041AW  22248.58334491 -.00028087  00000-0 -17524-2 0  9997,2 52305  53.2192  90.2260 0001489  75.0011 347.1854 15.08864131 22333,6917.807,95.436,540.702,538.6419999999998,0.0
52305.0,STARLINK-3724,PAYLOAD,2022-09-05 22:00:00,15.08830992,0.0001496999999999,53.2193,88.7315,64.9561,8.8456,-0.0006875,-0.0001121,0.0,0 STARLINK-3724,1 52305U 22041AW  22248.91667824 -.00011210  00000-0 -68750-3 0  9991,2 52305  53.2193  88.7315 0001497  64.9561   8.8456 15.08830992  1304,6917.908,95.438,540.809,538.737,0.0
52305.0,STARLINK-3724,PAYLOAD,2022-09-06 14:00:01,15.08819674,0.0001315,53.2195,85.7373,72.8956,24.0506,0.00072392,0.00011246,0.0,0 STARLINK-3724,1 52305U 22041AW  22249.58334491  .00011246  00000-0  72392-3 0  9990,2 52305  53.2195  85.7373 0001315  72.8956  24.0506 15.08819674  1302,6917.943,95.439,540.717,538.898,0.0
52305.0,STARLINK-3724,PAYLOAD,2022-09-06 22:00:00,15.08809463,0.0001412,53.2195,84.2428,63.1685,45.3563,0.0017015999999999,0.00026874,0.0,0 STARLINK-3724,1 52305U 22041AW  22249.91667824  .00026874  00000-0  17016-2 0  9990,2 52305  53.2195  84.2428 0001412  63.1685  45.3563 15.08809463 22539,6917.974,95.439,540.816,538.862,0.0
52305.0,STARLINK-3724,PAYLOAD,2022-09-07 14:00:01,15.08834378,0.0001274,53.2195,81.2486,73.1168,58.5255,0.0001426,1.982e-05,0.0,0 STARLINK-3724,1 52305U 22041AW  22250.58334491  .00001982  00000-0  14260-3 0  9998,2 52305  53.2195  81.2486 0001274  73.1168  58.5255 15.08834378 22631,6917.898,95.438,540.644,538.881,0.0
